FENGYUN 1C DEB          
1 29970U 99025KU  17345.97202206  .00000249  00000-0  95572-4 0  9997
2 29970  98.8994 130.7876 0102219 178.7494 295.7797 14.36450394571078
